[{"OBJECT_NAME":"BEIDOU-3 G3 (PRN 143)","OBJECT_ID":"2020-040A","EPOCH":"2026-04-25T22:41:26.561184","MEAN_MOTION":1.0027072,"ECCENTRICITY":0.00037145,"INCLINATION":2.3209,"RA_OF_ASC_NODE":67.2913,"ARG_OF_PERICENTER":329.0476,"MEAN_ANOMALY":268.5199,"EPHEMERIS_TYPE":0,"CLASSIFICATION_TYPE":"U","NORAD_CAT_ID":45807,"ELEMENT_SET_NO":999,"REV_AT_EPOCH":2154,"BSTAR":0,"MEAN_MOTION_DOT":-3.65e-6,"MEAN_MOTION_DDOT":0},{"OBJECT_NAME":"GALAXY 30 (WAAS/PRN 135)","OBJECT_ID":"2020-056C","EPOCH":"2026-04-25T16:26:15.345312","MEAN_MOTION":1.00270886,"ECCENTRICITY":0.00024075,"INCLINATION":0.0142,"RA_OF_ASC_NODE":234.9528,"ARG_OF_PERICENTER":170.7438,"MEAN_ANOMALY":289.5604,"EPHEMERIS_TYPE":0,"CLASSIFICATION_TYPE":"U","NORAD_CAT_ID":46114,"ELEMENT_SET_NO":999,"REV_AT_EPOCH":2076,"BSTAR":0,"MEAN_MOTION_DOT":0,"MEAN_MOTION_DDOT":0},{"OBJECT_NAME":"QZS-1R (QZSS/PRN 196)","OBJECT_ID":"2021-096A","EPOCH":"2026-04-25T05:44:14.287200","MEAN_MOTION":1.0027335,"ECCENTRICITY":0.0751189,"INCLINATION":37.3564,"RA_OF_ASC_NODE":80.362,"ARG_OF_PERICENTER":270.8159,"MEAN_ANOMALY":83.8411,"EPHEMERIS_TYPE":0,"CLASSIFICATION_TYPE":"U","NORAD_CAT_ID":49336,"ELEMENT_SET_NO":999,"REV_AT_EPOCH":1648,"BSTAR":0,"MEAN_MOTION_DOT":-2.31e-6,"MEAN_MOTION_DDOT":0},{"OBJECT_NAME":"QZS-6 (QZSS/PRN 200)","OBJECT_ID":"2025-023A","EPOCH":"2026-04-25T23:09:52.117056","MEAN_MOTION":1.00274269,"ECCENTRICITY":0.00025103,"INCLINATION":0.0137,"RA_OF_ASC_NODE":71.954,"ARG_OF_PERICENTER":329.2789,"MEAN_ANOMALY":250.6775,"EPHEMERIS_TYPE":0,"CLASSIFICATION_TYPE":"U","NORAD_CAT_ID":62876,"ELEMENT_SET_NO":999,"REV_AT_EPOCH":443,"BSTAR":0,"MEAN_MOTION_DOT":-2.47e-6,"MEAN_MOTION_DDOT":0}]
